{"type": "FeatureCollection", "features": [ {"type": "Feature", "properties": {"norad_id": 39574, "name": "GPM-CORE", "group": "resource", "lat": -35.13690232817626, "lon": -171.53104450290232, "alt_km": 436.47585801413425, "timestamp": "2025-12-14T05:42:18.114529+00:00", "meta": {"OBJECT_NAME": "GPM-CORE", "OBJECT_ID": "2014-009C", "EPOCH": "2025-12-13T15:53:20.869440", "MEAN_MOTION": 15.44484417, "ECCENTRICITY": 0.00097938, "INCLINATION": 64.9734, "RA_OF_ASC_NODE": 209.592, "ARG_OF_PERICENTER": 245.543, "MEAN_ANOMALY": 114.469, "EPHEMERIS_TYPE": 0, "CLASSIFICATION_TYPE": "U", "NORAD_CAT_ID": 39574, "ELEMENT_SET_NO": 999, "REV_AT_EPOCH": 66915, "BSTAR": 0.00021260046, "MEAN_MOTION_DOT": 9.679e-05, "MEAN_MOTION_DDOT": 0}, "tle": {"line1": "1 39574U 14009C   25347.66204710  .00009679  00000+0  21260-3 0  9993", "line2": "2 39574  64.9734 209.5920 0009793 245.5430 114.4690 15.44484417669155"}}, "geometry": {"type": "Point", "coordinates": [-171.53104450290232, -35.13690232817626]}}, {"type": "Feature", "properties": {"norad_id": 39634, "name": "SENTINEL-1A", "group": "resource", "lat": 66.84666941291336, "lon": -26.200430829963015, "alt_km": 688.3742344893162, "timestamp": "2025-12-14T05:42:18.114539+00:00", "meta": {"OBJECT_NAME": "SENTINEL-1A", "OBJECT_ID": "2014-016A", "EPOCH": "2025-12-13T16:13:39.620928", "MEAN_MOTION": 14.59200755, "ECCENTRICITY": 0.00012496, "INCLINATION": 98.1808, "RA_OF_ASC_NODE": 352.9037, "ARG_OF_PERICENTER": 83.635, "MEAN_ANOMALY": 276.4992, "EPHEMERIS_TYPE": 0, "CLASSIFICATION_TYPE": "U", "NORAD_CAT_ID": 39634, "ELEMENT_SET_NO": 999, "REV_AT_EPOCH": 62296, "BSTAR": 4.8174499e-05, "MEAN_MOTION_DOT": 1.81e-06, "MEAN_MOTION_DDOT": 0}, "tle": {"line1": "1 39634U 14016A   25347.67615302  .00000181  00000+0  48174-4 0  9995", "line2": "2 39634  98.1808 352.9037 0001249  83.6350 276.4992 14.59200755622963"}}, "geometry": {"type": "Point", "coordinates": [-26.200430829963015, 66.84666941291336]}}, {"type": "Feature", "properties": {"norad_id": 39731, "name": "KAZEOSAT 1", "group": "resource", "lat": -48.82259898350369, "lon": 69.76839534104047, "alt_km": 759.1653763938475, "timestamp": "2025-12-14T05:42:18.114549+00:00", "meta": {"OBJECT_NAME": "KAZEOSAT 1", "OBJECT_ID": "2014-024A", "EPOCH": "2025-12-13T16:36:44.416800", "MEAN_MOTION": 14.42064152, "ECCENTRICITY": 0.00011132, "INCLINATION": 98.3429, "RA_OF_ASC_NODE": 59.5777, "ARG_OF_PERICENTER": 95.7186, "MEAN_ANOMALY": 264.4131, "EPHEMERIS_TYPE": 0, "CLASSIFICATION_TYPE": "U", "NORAD_CAT_ID": 39731, "ELEMENT_SET_NO": 999, "REV_AT_EPOCH": 61182, "BSTAR": 0.00015786587, "MEAN_MOTION_DOT": 4.76e-06, "MEAN_MOTION_DDOT": 0}, "tle": {"line1": "1 39731U 14024A   25347.69218075  .00000476  00000+0  15787-3 0  9990", "line2": "2 39731  98.3429  59.5777 0001113  95.7186 264.4131 14.42064152611820"}}, "geometry": {"type": "Point", "coordinates": [69.76839534104047, -48.82259898350369]}}, {"type": "Feature", "properties": {"norad_id": 39766, "name": "ALOS-2", "group": "resource", "lat": 35.630659019608714, "lon": 77.33390706838462, "alt_km": 628.0123253308793, "timestamp": "2025-12-14T05:42:18.114560+00:00", "meta": {"OBJECT_NAME": "ALOS-2", "OBJECT_ID": "2014-029A", "EPOCH": "2025-12-12T12:57:47.930112", "MEAN_MOTION": 14.79474197, "ECCENTRICITY": 0.00014, "INCLINATION": 97.9217, "RA_OF_ASC_NODE": 81.3886, "ARG_OF_PERICENTER": 99.6977, "MEAN_ANOMALY": 260.4393, "EPHEMERIS_TYPE": 0, "CLASSIFICATION_TYPE": "U", "NORAD_CAT_ID": 39766, "ELEMENT_SET_NO": 999, "REV_AT_EPOCH": 62398, "BSTAR": 0.00062702076, "MEAN_MOTION_DOT": 4.634e-05, "MEAN_MOTION_DDOT": 0}, "tle": {"line1": "1 39766U 14029A   25346.54013808  .00004634  00000+0  62702-3 0  9992", "line2": "2 39766  97.9217  81.3886 0001400  99.6977 260.4393 14.79474197623982"}}, "geometry": {"type": "Point", "coordinates": [77.33390706838462, 35.630659019608714]}}, {"type": "Feature", "properties": {"norad_id": 40010, "name": "KAZEOSAT 2", "group": "resource", "lat": -22.99156397443919, "lon": -164.29888067731932, "alt_km": 622.3805577120556, "timestamp": "2025-12-14T05:42:18.114570+00:00", "meta": {"OBJECT_NAME": "KAZEOSAT 2", "OBJECT_ID": "2014-033A", "EPOCH": "2025-12-13T15:15:23.863104", "MEAN_MOTION": 14.85169323, "ECCENTRICITY": 0.00077376, "INCLINATION": 97.5508, "RA_OF_ASC_NODE": 191.904, "ARG_OF_PERICENTER": 203.5377, "MEAN_ANOMALY": 156.5486, "EPHEMERIS_TYPE": 0, "CLASSIFICATION_TYPE": "U", "NORAD_CAT_ID": 40010, "ELEMENT_SET_NO": 999, "REV_AT_EPOCH": 62141, "BSTAR": 9.8853829e-05, "MEAN_MOTION_DOT": 7.97e-06, "MEAN_MOTION_DDOT": 0}, "tle": {"line1": "1 40010U 14033A   25347.63569286  .00000797  00000+0  98854-4 0  9992", "line2": "2 40010  97.5508 191.9040 0007737 203.5377 156.5486 14.85169323621417"}}, "geometry": {"type": "Point", "coordinates": [-164.29888067731932, -22.99156397443919]}}, {"type": "Feature", "properties": {"norad_id": 40011, "name": "HODOYOSHI-4", "group": "resource", "lat": 74.85028366050004, "lon": 147.7520432761311, "alt_km": 606.3804636238456, "timestamp": "2025-12-14T05:42:18.114581+00:00", "meta": {"OBJECT_NAME": "HODOYOSHI-4", "OBJECT_ID": "2014-033B", "EPOCH": "2025-12-13T14:49:45.983712", "MEAN_MOTION": 14.87488524, "ECCENTRICITY": 0.00232519, "INCLINATION": 97.5417, "RA_OF_ASC_NODE": 176.4585, "ARG_OF_PERICENTER": 197.4042, "MEAN_ANOMALY": 162.6381, "EPHEMERIS_TYPE": 0, "CLASSIFICATION_TYPE": "U", "NORAD_CAT_ID": 40011, "ELEMENT_SET_NO": 999, "REV_AT_EPOCH": 62121, "BSTAR": 0.00039967139, "MEAN_MOTION_DOT": 3.588e-05, "MEAN_MOTION_DDOT": 0}, "tle": {"line1": "1 40011U 14033B   25347.61789333  .00003588  00000+0  39967-3 0  9998", "line2": "2 40011  97.5417 176.4585 0023251 197.4042 162.6381 14.87488524621217"}}, "geometry": {"type": "Point", "coordinates": [147.7520432761311, 74.85028366050004]}}, {"type": "Feature", "properties": {"norad_id": 40013, "name": "DEIMOS-2", "group": "resource", "lat": -80.26514644438176, "lon": -7.17306770559211, "alt_km": 596.5198212537289, "timestamp": "2025-12-14T05:42:18.114592+00:00", "meta": {"OBJECT_NAME": "DEIMOS-2", "OBJECT_ID": "2014-033D", "EPOCH": "2025-12-13T15:39:30.003840", "MEAN_MOTION": 14.9297838, "ECCENTRICITY": 8.181e-05, "INCLINATION": 97.6062, "RA_OF_ASC_NODE": 223.4222, "ARG_OF_PERICENTER": 110.5053, "MEAN_ANOMALY": 249.6254, "EPHEMERIS_TYPE": 0, "CLASSIFICATION_TYPE": "U", "NORAD_CAT_ID": 40013, "ELEMENT_SET_NO": 999, "REV_AT_EPOCH": 61003, "BSTAR": 0.00033363648, "MEAN_MOTION_DOT": 3.412e-05, "MEAN_MOTION_DDOT": 0}, "tle": {"line1": "1 40013U 14033D   25347.65243060  .00003412  00000+0  33364-3 0  9997", "line2": "2 40013  97.6062 223.4222 0000818 110.5053 249.6254 14.92978380610032"}}, "geometry": {"type": "Point", "coordinates": [-7.17306770559211, -80.26514644438176]}}, {"type": "Feature", "properties": {"norad_id": 40015, "name": "HODOYOSHI-3", "group": "resource", "lat": -11.587405905900223, "lon": 155.5801070228228, "alt_km": 624.4727939167433, "timestamp": "2025-12-14T05:42:18.114602+00:00", "meta": {"OBJECT_NAME": "HODOYOSHI-3", "OBJECT_ID": "2014-033F", "EPOCH": "2025-12-13T10:20:57.541920", "MEAN_MOTION": 14.84811259, "ECCENTRICITY": 0.00319282, "INCLINATION": 97.6197, "RA_OF_ASC_NODE": 153.2361, "ARG_OF_PERICENTER": 245.5965, "MEAN_ANOMALY": 114.1918, "EPHEMERIS_TYPE": 0, "CLASSIFICATION_TYPE": "U", "NORAD_CAT_ID": 40015, "ELEMENT_SET_NO": 999, "REV_AT_EPOCH": 62005, "BSTAR": 0.00031690067, "MEAN_MOTION_DOT": 2.662e-05, "MEAN_MOTION_DDOT": 0}, "tle": {"line1": "1 40015U 14033F   25347.43122155  .00002662  00000+0  31690-3 0  9992", "line2": "2 40015  97.6197 153.2361 0031928 245.5965 114.1918 14.84811259620052"}}, "geometry": {"type": "Point", "coordinates": [155.5801070228228, -11.587405905900223]}}, {"type": "Feature", "properties": {"norad_id": 40053, "name": "SPOT 7", "group": "resource", "lat": -57.91561294997478, "lon": 63.39254440726614, "alt_km": 698.7883406819474, "timestamp": "2025-12-14T05:42:18.114612+00:00", "meta": {"OBJECT_NAME": "SPOT 7", "OBJECT_ID": "2014-034A", "EPOCH": "2025-12-13T16:49:19.794720", "MEAN_MOTION": 14.60737012, "ECCENTRICITY": 0.00015714, "INCLINATION": 98.0904, "RA_OF_ASC_NODE": 49.7539, "ARG_OF_PERICENTER": 86.9278, "MEAN_ANOMALY": 273.2102, "EPHEMERIS_TYPE": 0, "CLASSIFICATION_TYPE": "U", "NORAD_CAT_ID": 40053, "ELEMENT_SET_NO": 999, "REV_AT_EPOCH": 61005, "BSTAR": 0.00023764077, "MEAN_MOTION_DOT": 1.113e-05, "MEAN_MOTION_DDOT": 0}, "tle": {"line1": "1 40053U 14034A   25347.70092355  .00001113  00000+0  23764-3 0  9996", "line2": "2 40053  98.0904  49.7539 0001571  86.9278 273.2102 14.60737012610055"}}, "geometry": {"type": "Point", "coordinates": [63.39254440726614, -57.91561294997478]}}, {"type": "Feature", "properties": {"norad_id": 40072, "name": "SKYSAT-B", "group": "resource", "lat": 19.090324916331877, "lon": -70.89478002898427, "alt_km": 609.0473486514775, "timestamp": "2025-12-14T05:42:18.114622+00:00", "meta": {"OBJECT_NAME": "SKYSAT-B", "OBJECT_ID": "2014-037D", "EPOCH": "2025-12-13T13:28:20.571744", "MEAN_MOTION": 14.87331868, "ECCENTRICITY": 0.00062152, "INCLINATION": 98.3608, "RA_OF_ASC_NODE": 291.3108, "ARG_OF_PERICENTER": 147.5527, "MEAN_ANOMALY": 212.6071, "EPHEMERIS_TYPE": 0, "CLASSIFICATION_TYPE": "U", "NORAD_CAT_ID": 40072, "ELEMENT_SET_NO": 999, "REV_AT_EPOCH": 61836, "BSTAR": 0.00025936995, "MEAN_MOTION_DOT": 2.282e-05, "MEAN_MOTION_DDOT": 0}, "tle": {"line1": "1 40072U 14037D   25347.56134921  .00002282  00000+0  25937-3 0  9992", "line2": "2 40072  98.3608 291.3108 0006215 147.5527 212.6071 14.87331868618360"}}, "geometry": {"type": "Point", "coordinates": [-70.89478002898427, 19.090324916331877]}}]}